BEIDOU-3 M9 (C29)       
1 43245U 18029A   26117.47449544 -.00000066  00000+0  00000+0 0  9997
2 43245  54.2404 301.7205 0000966  83.9796 276.0255  1.86228076 54950
BEIDOU-3 M10 (C30)      
1 43246U 18029B   26117.40911535 -.00000065  00000+0  00000+0 0  9994
2 43246  54.2383 301.7503 0004824  35.6999 324.3267  1.86228920 54930
IRNSS-1I                
1 43286U 18035A   26116.95808497  .00000091  00000+0  00000+0 0  9994
2 43286  29.0590  74.9838 0018249 187.2993 352.6285  1.00275466 29566
COSMOS 2527 (756)       
1 43508U 18053A   26115.99657815  .00000013  00000+0  00000+0 0  9994
2 43508  65.5504  75.6470 0008600 248.7222 111.1654  2.13101904 61161
BEIDOU-2 IGSO-7 (C16)   
1 43539U 18057A   26113.82760630 -.00000099  00000+0  00000+0 0  9997
2 43539  55.1848 163.5332 0103271 237.5854 221.4335  1.00267626 28581
GSAT0221 (GALILEO 25)   
1 43564U 18060A   26114.09926935 -.00000088  00000+0  00000+0 0  9999
2 43564  57.1855 343.2419 0003847 321.5085  38.5036  1.70475641 48245
GSAT0222 (GALILEO 26)   
1 43565U 18060B   26115.49200276 -.00000090  00000+0  00000+0 0  9991
2 43565  57.1892 343.2075 0002413 289.5902  70.4237  1.70475419 48313
GSAT0219 (GALILEO 23)   
1 43566U 18060C   26113.95323101 -.00000088  00000+0  00000+0 0  9991
2 43566  57.1884 343.2507 0003351 340.2281  19.7984  1.70475588 48268
GSAT0220 (GALILEO 24)   
1 43567U 18060D   26117.10722406 -.00000091  00000+0  00000+0 0  9998
2 43567  57.1835 343.1645 0003172  19.9224 340.1322  1.70475700 48303
BEIDOU-3 M5 (C23)       
1 43581U 18062A   26117.09635942  .00000009  00000+0  00000+0 0  9990
2 43581  54.0832 184.0412 0004336 289.5568  70.4600  1.86228549 52687
BEIDOU-3 M6 (C24)       
1 43582U 18062B   26115.34868677 -.00000010  00000+0  00000+0 0  9993
2 43582  54.0829 184.0898 0004888  23.5128 336.5677  1.86227595 52659
BEIDOU-3 M12 (C26)      
1 43602U 18067A   26114.75012764 -.00000010  00000+0  00000+0 0  9993
2 43602  54.1783 182.8527 0007877  33.8697 326.2399  1.86227717 52128
BEIDOU-3 M11 (C25)      
1 43603U 18067B   26117.03288223  .00000011  00000+0  00000+0 0  9993
2 43603  54.1752 182.7389 0004481  21.1333 338.9501  1.86227160 52199
BEIDOU-3 M13 (C32)      
1 43622U 18072A   26116.98805852 -.00000045  00000+0  00000+0 0  9994
2 43622  56.5822  64.3480 0008846 318.5007  41.4014  1.86230948 51700
BEIDOU-3 M14 (C33)      
1 43623U 18072B   26114.70569242 -.00000024  00000+0  00000+0 0  9990
2 43623  56.5822  64.4176 0006921 342.3518  17.5993  1.86231012 51655
BEIDOU-3 M16 (C35)      
1 43647U 18078A   26117.00963713 -.00000063  00000+0  00000+0 0  9992
2 43647  54.1375 301.7792 0008106  38.5821 321.4712  1.86232321 51208
BEIDOU-3 M15 (C34)      
1 43648U 18078B   26116.60200409 -.00000059  00000+0  00000+0 0  9999
2 43648  54.1328 301.7937 0005208  50.2977 309.7445  1.86232072 51217
